{
    "links": {
        "self": "http://www.neowsapp.com/rest/v1/neo/3744849?api_key=iIulBulltgU6a56xZRHN4H3l9WmuAYTsLGpBGhQ2"
    },
    "id": "3744849",
    "neo_reference_id": "3744849",
    "name": "(2016 DM2)",
    "designation": "2016 DM2",
    "nasa_jpl_url": "http://ssd.jpl.nasa.gov/sbdb.cgi?sstr=3744849",
    "absolute_magnitude_h": 25.5,
    "estimated_diameter": {
        "kilometers": {
            "estimated_diameter_min": 0.0211132445,
            "estimated_diameter_max": 0.0472106499
        },
        "meters": {
            "estimated_diameter_min": 21.113244479,
            "estimated_diameter_max": 47.2106498806
        },
        "miles": {
            "estimated_diameter_min": 0.0131191578,
            "estimated_diameter_max": 0.0293353287
        },
        "feet": {
            "estimated_diameter_min": 69.2691770164,
            "estimated_diameter_max": 154.8905885541
        }
    },
    "is_potentially_hazardous_asteroid": false,
    "close_approach_data": [
        {
            "close_approach_date": "2016-02-21",
            "close_approach_date_full": "2016-Feb-21 06:52",
            "epoch_date_close_approach": 1456037520000,
            "relative_velocity": {
                "kilometers_per_second": "5.4694732969",
                "kilometers_per_hour": "19690.1038689772",
                "miles_per_hour": "12234.6648179209"
            },
            "miss_distance": {
                "astronomical": "0.0800961949",
                "lunar": "31.1574198161",
                "kilometers": "11982220.152144863",
                "miles": "7445406.3544625894"
            },
            "orbiting_body": "Earth"
        }
    ],
    "orbital_data": {
        "orbit_id": "6",
        "orbit_determination_date": "2017-04-06 08:28:01",
        "first_observation_date": "2016-02-28",
        "last_observation_date": "2016-03-18",
        "data_arc_in_days": 19,
        "observations_used": 41,
        "orbit_uncertainty": "7",
        "minimum_orbit_intersection": ".0667975",
        "jupiter_tisserand_invariant": "3.750",
        "epoch_osculation": "2459000.5",
        "eccentricity": ".4609592847164254",
        "semi_major_axis": "1.954462297600969",
        "inclination": "1.639801423176878",
        "ascending_node_longitude": "130.9351187600102",
        "orbital_period": "998.0202942910541",
        "perihelion_distance": "1.053534754893605",
        "perihelion_argument": "10.13724895791016",
        "aphelion_distance": "2.855389840308333",
        "perihelion_time": "2459428.608251012299",
        "mean_anomaly": "205.5753142034989",
        "mean_motion": ".3607141077784664",
        "equinox": "J2000",
        "orbit_class": {
            "orbit_class_type": "AMO",
            "orbit_class_description": "Near-Earth asteroid orbits similar to that of 1221 Amor",
            "orbit_class_range": "1.017 AU < q (perihelion) < 1.3 AU"
        }
    },
    "is_sentry_object": false
}